{
  "type": "FeatureCollection",
  "features": [
    {
      "type": "Feature",
      "properties": {
        "norad_id": 36692,
        "name": "FENGYUN 1C DEB",
        "group": "fengyun-1c-debris",
        "lat": -30.918260243636553,
        "lon": 67.78195549151525,
        "alt_km": 1001.2914863833057,
        "timestamp": "2025-12-13T16:48:32.998718+00:00",
        "meta_object_name": "FENGYUN 1C DEB",
        "meta_object_id": "1999-025DZN",
        "meta_epoch": "2025-12-04T12:56:52.897632",
        "meta_mean_motion": 13.93448865,
        "meta_eccentricity": 0.0115856,
        "meta_inclination": 99.9932,
        "meta_ra_of_asc_node": 243.9547,
        "meta_arg_of_pericenter": 34.8482,
        "meta_mean_anomaly": 326.0192,
        "meta_ephemeris_type": 0,
        "meta_classification_type": "U",
        "meta_norad_cat_id": 36692,
        "meta_element_set_no": 999,
        "meta_rev_at_epoch": 59691,
        "meta_bstar": 0.0009556,
        "meta_mean_motion_dot": 1.272e-05,
        "meta_mean_motion_ddot": 0,
        "tle_line1": "1 36692U 99025DZN 25338.53950113  .00001272  00000+0  95560-3 0  9998",
        "tle_line2": "2 36692  99.9932 243.9547 0115856  34.8482 326.0192 13.93448865596912"
      },
      "geometry": {
        "type": "Point",
        "coordinates": [
          67.78195549151525,
          -30.918260243636553
        ]
      }
    },
    {
      "type": "Feature",
      "properties": {
        "norad_id": 36695,
        "name": "FENGYUN 1C DEB",
        "group": "fengyun-1c-debris",
        "lat": -80.83805952176411,
        "lon": 85.31445646668901,
        "alt_km": 888.7724442988856,
        "timestamp": "2025-12-13T16:48:32.998728+00:00",
        "meta_object_name": "FENGYUN 1C DEB",
        "meta_object_id": "1999-025DZR",
        "meta_epoch": "2025-12-09T16:47:24.081792",
        "meta_mean_motion": 14.43738947,
        "meta_eccentricity": 0.02573024,
        "meta_inclination": 98.2214,
        "meta_ra_of_asc_node": 325.1368,
        "meta_arg_of_pericenter": 139.5563,
        "meta_mean_anomaly": 222.5073,
        "meta_ephemeris_type": 0,
        "meta_classification_type": "U",
        "meta_norad_cat_id": 36695,
        "meta_element_set_no": 999,
        "meta_rev_at_epoch": 89524,
        "meta_bstar": 0.00025681579,
        "meta_mean_motion_dot": 1.255e-05,
        "meta_mean_motion_ddot": 0,
        "tle_line1": "1 36695U 99025DZR 25343.69958428  .00001255  00000+0  25682-3 0  9990",
        "tle_line2": "2 36695  98.2214 325.1368 0257302 139.5563 222.5073 14.43738947895245"
      },
      "geometry": {
        "type": "Point",
        "coordinates": [
          85.31445646668901,
          -80.83805952176411
        ]
      }
    },
    {
      "type": "Feature",
      "properties": {
        "norad_id": 36696,
        "name": "FENGYUN 1C DEB",
        "group": "fengyun-1c-debris",
        "lat": 42.67945392218315,
        "lon": -174.8661804079643,
        "alt_km": 773.6342222767835,
        "timestamp": "2025-12-13T16:48:32.998738+00:00",
        "meta_object_name": "FENGYUN 1C DEB",
        "meta_object_id": "1999-025DZS",
        "meta_epoch": "2025-12-12T23:29:27.613248",
        "meta_mean_motion": 14.39206881,
        "meta_eccentricity": 0.00228959,
        "meta_inclination": 98.9916,
        "meta_ra_of_asc_node": 355.9822,
        "meta_arg_of_pericenter": 328.4138,
        "meta_mean_anomaly": 31.5673,
        "meta_ephemeris_type": 0,
        "meta_classification_type": "U",
        "meta_norad_cat_id": 36696,
        "meta_element_set_no": 999,
        "meta_rev_at_epoch": 64399,
        "meta_bstar": 0.0029501232,
        "meta_mean_motion_dot": 9.135e-05,
        "meta_mean_motion_ddot": 0,
        "tle_line1": "1 36696U 99025DZS 25346.97879182  .00009135  00000+0  29501-2 0  9992",
        "tle_line2": "2 36696  98.9916 355.9822 0022895 328.4138  31.5673 14.39206881643991"
      },
      "geometry": {
        "type": "Point",
        "coordinates": [
          -174.8661804079643,
          42.67945392218315
        ]
      }
    },
    {
      "type": "Feature",
      "properties": {
        "norad_id": 36699,
        "name": "FENGYUN 1C DEB",
        "group": "fengyun-1c-debris",
        "lat": 58.99673520757387,
        "lon": 176.69111628894248,
        "alt_km": 737.6863937210401,
        "timestamp": "2025-12-13T16:48:32.998748+00:00",
        "meta_object_name": "FENGYUN 1C DEB",
        "meta_object_id": "1999-025DZV",
        "meta_epoch": "2025-12-11T05:14:28.287744",
        "meta_mean_motion": 14.24290495,
        "meta_eccentricity": 0.00945804,
        "meta_inclination": 98.5589,
        "meta_ra_of_asc_node": 339.76,
        "meta_arg_of_pericenter": 134.5119,
        "meta_mean_anomaly": 226.3839,
        "meta_ephemeris_type": 0,
        "meta_classification_type": "U",
        "meta_norad_cat_id": 36699,
        "meta_element_set_no": 999,
        "meta_rev_at_epoch": 73305,
        "meta_bstar": 0.00032955005,
        "meta_mean_motion_dot": 7.55e-06,
        "meta_mean_motion_ddot": 0,
        "tle_line1": "1 36699U 99025DZV 25345.21838296  .00000755  00000+0  32955-3 0  9999",
        "tle_line2": "2 36699  98.5589 339.7600 0094580 134.5119 226.3839 14.24290495733058"
      },
      "geometry": {
        "type": "Point",
        "coordinates": [
          176.69111628894248,
          58.99673520757387
        ]
      }
    },
    {
      "type": "Feature",
      "properties": {
        "norad_id": 36701,
        "name": "FENGYUN 1C DEB",
        "group": "fengyun-1c-debris",
        "lat": -69.39054615429978,
        "lon": 85.3521680346099,
        "alt_km": 810.2211234807037,
        "timestamp": "2025-12-13T16:48:32.998759+00:00",
        "meta_object_name": "FENGYUN 1C DEB",
        "meta_object_id": "1999-025DZX",
        "meta_epoch": "2025-12-09T15:15:38.057760",
        "meta_mean_motion": 13.71305696,
        "meta_eccentricity": 0.0260138,
        "meta_inclination": 102.7439,
        "meta_ra_of_asc_node": 296.9694,
        "meta_arg_of_pericenter": 260.5557,
        "meta_mean_anomaly": 96.6087,
        "meta_ephemeris_type": 0,
        "meta_classification_type": "U",
        "meta_norad_cat_id": 36701,
        "meta_element_set_no": 999,
        "meta_rev_at_epoch": 61096,
        "meta_bstar": 0.0037365,
        "meta_mean_motion_dot": 4.196e-05,
        "meta_mean_motion_ddot": 0,
        "tle_line1": "1 36701U 99025DZX 25343.63585715  .00004196  00000+0  37365-2 0  9994",
        "tle_line2": "2 36701 102.7439 296.9694 0260138 260.5557  96.6087 13.71305696610969"
      },
      "geometry": {
        "type": "Point",
        "coordinates": [
          85.3521680346099,
          -69.39054615429978
        ]
      }
    },
    {
      "type": "Feature",
      "properties": {
        "norad_id": 36707,
        "name": "FENGYUN 1C DEB",
        "group": "fengyun-1c-debris",
        "lat": -17.467785597120464,
        "lon": 36.57686611134957,
        "alt_km": 865.4054938343106,
        "timestamp": "2025-12-13T16:48:32.998769+00:00",
        "meta_object_name": "FENGYUN 1C DEB",
        "meta_object_id": "1999-025EAD",
        "meta_epoch": "2025-12-11T22:32:06.995904",
        "meta_mean_motion": 14.17305569,
        "meta_eccentricity": 0.004991,
        "meta_inclination": 98.7525,
        "meta_ra_of_asc_node": 32.064,
        "meta_arg_of_pericenter": 124.0792,
        "meta_mean_anomaly": 236.5135,
        "meta_ephemeris_type": 0,
        "meta_classification_type": "U",
        "meta_norad_cat_id": 36707,
        "meta_element_set_no": 999,
        "meta_rev_at_epoch": 64068,
        "meta_bstar": 0.0012278,
        "meta_mean_motion_dot": 2.469e-05,
        "meta_mean_motion_ddot": 0,
        "tle_line1": "1 36707U 99025EAD 25345.93896986  .00002469  00000+0  12278-2 0  9997",
        "tle_line2": "2 36707  98.7525  32.0640 0049910 124.0792 236.5135 14.17305569640684"
      },
      "geometry": {
        "type": "Point",
        "coordinates": [
          36.57686611134957,
          -17.467785597120464
        ]
      }
    },
    {
      "type": "Feature",
      "properties": {
        "norad_id": 36710,
        "name": "FENGYUN 1C DEB",
        "group": "fengyun-1c-debris",
        "lat": 3.610366935959815,
        "lon": 44.28338094943028,
        "alt_km": 776.5703740243562,
        "timestamp": "2025-12-13T16:48:32.998779+00:00",
        "meta_object_name": "FENGYUN 1C DEB",
        "meta_object_id": "1999-025EAG",
        "meta_epoch": "2025-12-09T10:05:53.606976",
        "meta_mean_motion": 14.49787027,
        "meta_eccentricity": 0.00678732,
        "meta_inclination": 98.3799,
        "meta_ra_of_asc_node": 40.5617,
        "meta_arg_of_pericenter": 191.5881,
        "meta_mean_anomaly": 168.3755,
        "meta_ephemeris_type": 0,
        "meta_classification_type": "U",
        "meta_norad_cat_id": 36710,
        "meta_element_set_no": 999,
        "meta_rev_at_epoch": 64905,
        "meta_bstar": 0.0022522303,
        "meta_mean_motion_dot": 8.905e-05,
        "meta_mean_motion_ddot": 0,
        "tle_line1": "1 36710U 99025EAG 25343.42075934  .00008905  00000+0  22522-2 0  9999",
        "tle_line2": "2 36710  98.3799  40.5617 0067873 191.5881 168.3755 14.49787027649059"
      },
      "geometry": {
        "type": "Point",
        "coordinates": [
          44.28338094943028,
          3.610366935959815
        ]
      }
    }
  ]
}